{"type": "FeatureCollection", "features": [ {"type": "Feature", "properties": {"norad_id": 33492, "name": "GOSAT (IBUKI)", "group": "resource", "lat": -76.69816253351804, "lon": -110.9799184688747, "alt_km": 676.8933512136236, "timestamp": "2025-12-23T11:34:47.838744+00:00", "meta": {"OBJECT_NAME": "GOSAT (IBUKI)", "OBJECT_ID": "2009-002A", "EPOCH": "2025-12-23T03:51:22.078080", "MEAN_MOTION": 14.6754454, "ECCENTRICITY": 0.0001003, "INCLINATION": 98.0771, "RA_OF_ASC_NODE": 105.6192, "ARG_OF_PERICENTER": 103.7933, "MEAN_ANOMALY": 256.3383, "EPHEMERIS_TYPE": 0, "CLASSIFICATION_TYPE": "U", "NORAD_CAT_ID": 33492, "ELEMENT_SET_NO": 999, "REV_AT_EPOCH": 90564, "BSTAR": 0.00015332, "MEAN_MOTION_DOT": 8.22e-06, "MEAN_MOTION_DDOT": 0}, "tle": {"line1": "1 33492U 09002A   25357.16067220  .00000822  00000+0  15332-3 0  9996", "line2": "2 33492  98.0771 105.6192 0001003 103.7933 256.3383 14.67544540905643"}}, "geometry": {"type": "Point", "coordinates": [-110.9799184688747, -76.69816253351804]}}, {"type": "Feature", "properties": {"norad_id": 35681, "name": "DEIMOS-1", "group": "resource", "lat": -79.80688539865453, "lon": -71.34824052452592, "alt_km": 654.2735971069051, "timestamp": "2025-12-23T11:34:47.838755+00:00", "meta": {"OBJECT_NAME": "DEIMOS-1", "OBJECT_ID": "2009-041A", "EPOCH": "2025-12-23T05:30:19.046304", "MEAN_MOTION": 14.74968137, "ECCENTRICITY": 0.0002544, "INCLINATION": 97.7151, "RA_OF_ASC_NODE": 157.3447, "ARG_OF_PERICENTER": 63.1057, "MEAN_ANOMALY": 297.0412, "EPHEMERIS_TYPE": 0, "CLASSIFICATION_TYPE": "U", "NORAD_CAT_ID": 35681, "ELEMENT_SET_NO": 999, "REV_AT_EPOCH": 88094, "BSTAR": 0.00014093, "MEAN_MOTION_DOT": 9e-06, "MEAN_MOTION_DDOT": 0}, "tle": {"line1": "1 35681U 09041A   25357.22938711  .00000900  00000+0  14093-3 0  9990", "line2": "2 35681  97.7151 157.3447 0002544  63.1057 297.0412 14.74968137880947"}}, "geometry": {"type": "Point", "coordinates": [-71.34824052452592, -79.80688539865453]}}, {"type": "Feature", "properties": {"norad_id": 35682, "name": "DUBAISAT-1", "group": "resource", "lat": -5.177902835708113, "lon": -52.72392458885537, "alt_km": 650.080112345513, "timestamp": "2025-12-23T11:34:47.838765+00:00", "meta": {"OBJECT_NAME": "DUBAISAT-1", "OBJECT_ID": "2009-041B", "EPOCH": "2025-12-23T02:35:58.693344", "MEAN_MOTION": 14.74631063, "ECCENTRICITY": 0.0009264, "INCLINATION": 97.9797, "RA_OF_ASC_NODE": 127.6358, "ARG_OF_PERICENTER": 277.232, "MEAN_ANOMALY": 82.7836, "EPHEMERIS_TYPE": 0, "CLASSIFICATION_TYPE": "U", "NORAD_CAT_ID": 35682, "ELEMENT_SET_NO": 999, "REV_AT_EPOCH": 87914, "BSTAR": 0.00018936, "MEAN_MOTION_DOT": 1.213e-05, "MEAN_MOTION_DDOT": 0}, "tle": {"line1": "1 35682U 09041B   25357.10831821  .00001213  00000+0  18936-3 0  9990", "line2": "2 35682  97.9797 127.6358 0009264 277.2320  82.7836 14.74631063879148"}}, "geometry": {"type": "Point", "coordinates": [-52.72392458885537, -5.177902835708113]}}, {"type": "Feature", "properties": {"norad_id": 35931, "name": "OCEANSAT-2", "group": "resource", "lat": -13.51922815268343, "lon": -1.0149073093972705, "alt_km": 889.5688995719365, "timestamp": "2025-12-23T11:34:47.838774+00:00", "meta": {"OBJECT_NAME": "OCEANSAT-2", "OBJECT_ID": "2009-051A", "EPOCH": "2025-12-23T04:46:55.404768", "MEAN_MOTION": 13.99622902, "ECCENTRICITY": 0.0015949, "INCLINATION": 98.2217, "RA_OF_ASC_NODE": 356.7385, "ARG_OF_PERICENTER": 17.5945, "MEAN_ANOMALY": 342.5771, "EPHEMERIS_TYPE": 0, "CLASSIFICATION_TYPE": "U", "NORAD_CAT_ID": 35931, "ELEMENT_SET_NO": 999, "REV_AT_EPOCH": 85471, "BSTAR": -2.2889e-05, "MEAN_MOTION_DOT": -7.1e-07, "MEAN_MOTION_DDOT": 0}, "tle": {"line1": "1 35931U 09051A   25357.19925237 -.00000071  00000+0 -22889-4 0  9998", "line2": "2 35931  98.2217 356.7385 0015949  17.5945 342.5771 13.99622902854715"}}, "geometry": {"type": "Point", "coordinates": [-1.0149073093972705, -13.51922815268343]}}, {"type": "Feature", "properties": {"norad_id": 35946, "name": "WORLDVIEW-2 (WV-2)", "group": "resource", "lat": 39.67290765072958, "lon": -104.47445706545416, "alt_km": 763.2561953312606, "timestamp": "2025-12-23T11:34:47.838784+00:00", "meta": {"OBJECT_NAME": "WORLDVIEW-2 (WV-2)", "OBJECT_ID": "2009-055A", "EPOCH": "2025-12-23T04:15:05.994144", "MEAN_MOTION": 14.37728531, "ECCENTRICITY": 0.0004803, "INCLINATION": 98.4775, "RA_OF_ASC_NODE": 68.1185, "ARG_OF_PERICENTER": 45.126, "MEAN_ANOMALY": 315.0316, "EPHEMERIS_TYPE": 0, "CLASSIFICATION_TYPE": "U", "NORAD_CAT_ID": 35946, "ELEMENT_SET_NO": 999, "REV_AT_EPOCH": 85035, "BSTAR": 7.4435e-05, "MEAN_MOTION_DOT": 1.8e-06, "MEAN_MOTION_DDOT": 0}, "tle": {"line1": "1 35946U 09055A   25357.17715271  .00000180  00000+0  74435-4 0  9994", "line2": "2 35946  98.4775  68.1185 0004803  45.1260 315.0316 14.37728531850352"}}, "geometry": {"type": "Point", "coordinates": [-104.47445706545416, 39.67290765072958]}}, {"type": "Feature", "properties": {"norad_id": 36036, "name": "SMOS", "group": "resource", "lat": -71.19664151758101, "lon": -23.47469763938246, "alt_km": 767.3468826534154, "timestamp": "2025-12-23T11:34:47.838794+00:00", "meta": {"OBJECT_NAME": "SMOS", "OBJECT_ID": "2009-059A", "EPOCH": "2025-12-22T22:43:56.957664", "MEAN_MOTION": 14.39750085, "ECCENTRICITY": 0.0001062, "INCLINATION": 98.438, "RA_OF_ASC_NODE": 181.8445, "ARG_OF_PERICENTER": 83.5939, "MEAN_ANOMALY": 276.537, "EPHEMERIS_TYPE": 0, "CLASSIFICATION_TYPE": "U", "NORAD_CAT_ID": 36036, "ELEMENT_SET_NO": 999, "REV_AT_EPOCH": 84809, "BSTAR": 0.00013392, "MEAN_MOTION_DOT": 3.76e-06, "MEAN_MOTION_DDOT": 0}, "tle": {"line1": "1 36036U 09059A   25356.94718701  .00000376  00000+0  13392-3 0  9995", "line2": "2 36036  98.4380 181.8445 0001062  83.5939 276.5370 14.39750085848090"}}, "geometry": {"type": "Point", "coordinates": [-23.47469763938246, -71.19664151758101]}}, {"type": "Feature", "properties": {"norad_id": 36110, "name": "YAOGAN-7", "group": "resource", "lat": 73.1241406782901, "lon": 86.93145908120064, "alt_km": 641.9795094896317, "timestamp": "2025-12-23T11:34:47.838804+00:00", "meta": {"OBJECT_NAME": "YAOGAN-7", "OBJECT_ID": "2009-069A", "EPOCH": "2025-12-22T15:36:15.487200", "MEAN_MOTION": 14.77746064, "ECCENTRICITY": 0.00234069, "INCLINATION": 98.0295, "RA_OF_ASC_NODE": 238.3715, "ARG_OF_PERICENTER": 247.4675, "MEAN_ANOMALY": 112.4058, "EPHEMERIS_TYPE": 0, "CLASSIFICATION_TYPE": "U", "NORAD_CAT_ID": 36110, "ELEMENT_SET_NO": 999, "REV_AT_EPOCH": 86355, "BSTAR": 8.4897324e-05, "MEAN_MOTION_DOT": 5.58e-06, "MEAN_MOTION_DDOT": 0}, "tle": {"line1": "1 36110U 09069A   25356.65017925  .00000558  00000+0  84897-4 0  9998", "line2": "2 36110  98.0295 238.3715 0023406 247.4675 112.4058 14.77746064863559"}}, "geometry": {"type": "Point", "coordinates": [86.93145908120064, 73.1241406782901]}}, {"type": "Feature", "properties": {"norad_id": 36605, "name": "TANDEM-X", "group": "resource", "lat": 30.152714988767165, "lon": -172.93815045623083, "alt_km": 506.55921455963926, "timestamp": "2025-12-23T11:34:47.838814+00:00", "meta": {"OBJECT_NAME": "TANDEM-X", "OBJECT_ID": "2010-030A", "EPOCH": "2025-12-22T14:22:24.829536", "MEAN_MOTION": 15.19158129, "ECCENTRICITY": 0.0001799, "INCLINATION": 97.4444, "RA_OF_ASC_NODE": 1.8349, "ARG_OF_PERICENTER": 78.6886, "MEAN_ANOMALY": 281.4551, "EPHEMERIS_TYPE": 0, "CLASSIFICATION_TYPE": "U", "NORAD_CAT_ID": 36605, "ELEMENT_SET_NO": 999, "REV_AT_EPOCH": 85983, "BSTAR": 3.9682032e-05, "MEAN_MOTION_DOT": 7.67e-06, "MEAN_MOTION_DDOT": 0}, "tle": {"line1": "1 36605U 10030A   25356.59889849  .00000767  00000+0  39682-4 0  9996", "line2": "2 36605  97.4444   1.8349 0001799  78.6886 281.4551 15.19158129859839"}}, "geometry": {"type": "Point", "coordinates": [-172.93815045623083, 30.152714988767165]}}, {"type": "Feature", "properties": {"norad_id": 36795, "name": "CARTOSAT-2B", "group": "resource", "lat": 69.12205878472017, "lon": 25.147513092394895, "alt_km": 618.5833646602541, "timestamp": "2025-12-23T11:34:47.838823+00:00", "meta": {"OBJECT_NAME": "CARTOSAT-2B", "OBJECT_ID": "2010-035A", "EPOCH": "2025-12-23T04:46:00.367968", "MEAN_MOTION": 14.78739183, "ECCENTRICITY": 0.0012688, "INCLINATION": 97.7838, "RA_OF_ASC_NODE": 45.8886, "ARG_OF_PERICENTER": 45.7938, "MEAN_ANOMALY": 314.4314, "EPHEMERIS_TYPE": 0, "CLASSIFICATION_TYPE": "U", "NORAD_CAT_ID": 36795, "ELEMENT_SET_NO": 999, "REV_AT_EPOCH": 83384, "BSTAR": 8.4911e-05, "MEAN_MOTION_DOT": 5.74e-06, "MEAN_MOTION_DDOT": 0}, "tle": {"line1": "1 36795U 10035A   25357.19861537  .00000574  00000+0  84911-4 0  9993", "line2": "2 36795  97.7838  45.8886 0012688  45.7938 314.4314 14.78739183833841"}}, "geometry": {"type": "Point", "coordinates": [25.147513092394895, 69.12205878472017]}}, {"type": "Feature", "properties": {"norad_id": 36834, "name": "YAOGAN-10", "group": "resource", "lat": 18.17935315235445, "lon": 14.604323315499547, "alt_km": 614.6200989565041, "timestamp": "2025-12-23T11:34:47.838833+00:00", "meta": {"OBJECT_NAME": "YAOGAN-10", "OBJECT_ID": "2010-038A", "EPOCH": "2025-12-23T05:37:52.258368", "MEAN_MOTION": 14.84643765, "ECCENTRICITY": 0.0001343, "INCLINATION": 97.9128, "RA_OF_ASC_NODE": 16.9761, "ARG_OF_PERICENTER": 79.382, "MEAN_ANOMALY": 55.1416, "EPHEMERIS_TYPE": 0, "CLASSIFICATION_TYPE": "U", "NORAD_CAT_ID": 36834, "ELEMENT_SET_NO": 999, "REV_AT_EPOCH": 83109, "BSTAR": 0.00022699, "MEAN_MOTION_DOT": 1.865e-05, "MEAN_MOTION_DDOT": 0}, "tle": {"line1": "1 36834U 10038A   25357.23463262  .00001865  00000+0  22699-3 0  9996", "line2": "2 36834  97.9128  16.9761 0001343  79.3820  55.1416 14.84643765831093"}}, "geometry": {"type": "Point", "coordinates": [14.604323315499547, 18.17935315235445]}}]}